LEMUR-1                 
1 40044U 14033AL  26177.65827844  .00001813  00000+0  21294-3 0  9993
2 40044  97.7884 327.2531 0049244  48.3449 312.1966 14.85278992646879
LEMUR-2-GREENBERG       
1 42837U 17042N   26177.75725862  .00016140  00000+0  53034-3 0  9992
2 42837  97.3818 358.3396 0007633 337.7149  22.3759 15.31609409489852
LEMUR-2-ANDIS           
1 42838U 17042P   26177.76440793  .00020407  00000+0  59790-3 0  9997
2 42838  97.3678 358.5643 0007437 334.9832  25.1050 15.35214753489925
LEMUR-2-MONSON          
1 42839U 17042Q   26177.45947918  .00017793  00000+0  64775-3 0  9998
2 42839  97.4079 358.0012 0005479 329.4896  30.6024 15.28263966489586
LEMUR-2-FURIAUS         
1 42840U 17042R   26177.75772688  .00017576  00000+0  59636-3 0  9992
2 42840  97.3767 356.2737 0007504  38.3651 321.8122 15.30553128489670
LEMUR-2-PETERG          
1 42841U 17042S   26177.75451941  .00023297  00000+0  70311-3 0  9999
2 42841  97.3988   2.8023 0002712 311.1609  48.9400 15.34274796489906
LEMUR-2-DEMBITZ         
1 42842U 17042T   26177.45051279  .00016778  00000+0  56954-3 0  9990
2 42842  97.3823 358.9996 0005932 355.3862   4.7324 15.30559376489762
LEMUR-2-ZACHARY         
1 42845U 17042W   26177.48269242  .00042179  00000+0  72398-3 0  9991
2 42845  97.3591   9.3214 0002278 347.0942  13.0251 15.51052466490646
LEMUR-2-AMANDA-SVANTE   
1 48269U 21034B   26177.68218266  .00029622  00000+0  87666-3 0  9997
2 48269  97.5764 256.2206 0003271 182.4789 177.6438 15.34845675282516
LEMUR-2-SPECIAL-K       
1 48273U 21034F   26177.73573860  .00175607  00000+0  16004-2 0  9994
2 48273  97.5656 265.3027 0005036 223.9625 136.1235 15.67337658283186
LEMUR-2-EMBRIONOVIS     
1 56970U 23084AQ  26177.37747804  .00014408  00000+0  39006-3 0  9994
2 56970  97.6293 321.9310 0007455 282.0427  77.9981 15.37769981169092
LEMUR-2-DEVERILL-M-T    
1 57391U 23100F   26177.59144544  .00024855  00000+0  62016-3 0  9991
2 57391  99.4471 219.0675 0005420  17.3913 342.7512 15.40198630162691
LEMUR-2-BASS            
1 58259U 23174D   26177.74192635  .00017606  00000+0  39530-3 0  9998
2 58259  97.3853 262.5889 0008080 133.1598 227.0327 15.43401235146835
LEMUR-2-JK0903EM1407    
1 58336U 23174CJ  26177.68673779  .00025548  00000+0  42305-3 0  9998
2 58336  97.3932 268.4263 0005121  92.1601 268.0238 15.52152002147205
LEMUR-2-MJR092620       
1 58340U 23174CN  26177.54984615  .00019970  00000+0  42165-3 0  9998
2 58340  97.3982 267.7527 0006883  90.2557 269.9481 15.45206009147091
LEMUR-2-NIMBUS2000      
1 58899U 24022A   26177.56452111  .00020745  00000+0  51429-3 0  9998
2 58899  97.4104  27.6853 0010262  87.5376 272.7044 15.40360089133711
LEMUR-2-VALHALLA        
1 58900U 24022B   26177.56294262  .00015785  00000+0  39740-3 0  9992
2 58900  97.4102  27.6688 0010765  83.6377 276.6094 15.39944276133716
LEMUR-2-CAEL            
1 58903U 24022E   26177.56479100  .00016749  00000+0  40381-3 0  9995
2 58903  97.4085  28.6232 0008941  69.9227 290.2981 15.41265834133782
LEMUR-2-JOHNNYTRUONG    
1 59146U 24043BA  26177.38232519  .00043273  00000+0  51226-3 0  9991
2 59146  97.5373 329.6593 0004862 148.7213 211.4334 15.61135676129476
LEMUR-2-TOMATOKECHUP    
1 60471U 24149D   26177.48770762  .00011213  00000+0  31986-3 0  9999
2 60471  97.3804 259.5586 0002246 157.4796 202.6547 15.36216015103598
LEMUR-2-STELLA          
1 60533U 24149BT  26177.67843126  .00010610  00000+0  62136-3 0  9995
2 60533  97.6742 260.1754 0001451  97.9176 262.2219 15.11999626101936
LEMUR-2-MARHISYAM       
1 60536U 24149BW  26177.72843181  .00010143  00000+0  60353-3 0  9995
2 60536  97.6882 260.6844 0003239 100.7882 259.3713 15.11435662101922
LEMUR-2-AHMED-ASRAR     
1 60576U 24149DN  26177.75334294  .00011187  00000+0  63849-3 0  9994
2 60576  97.7009 262.8393 0000954  20.7325 339.3944 15.12917521102011
LEMUR-2-LLOYD           
1 60577U 24149DP  26177.19127139  .00011477  00000+0  72131-3 0  9997
2 60577  97.6746 258.3252 0005087 117.9672 242.2072 15.09400718101754
LEMUR-2-SQUIRRELCOMM    
1 60578U 24149DQ  26177.68279653  .00006148  00000+0  41176-3 0  9995
2 60578  97.6718 258.5642 0005888  36.0972 324.0652 15.07255310101838
LEMUR-2-SIERRINI        
1 60579U 24149DR  26177.75391209  .00010962  00000+0  65698-3 0  9990
2 60579  97.6847 260.3886 0006490 137.6221 222.5511 15.11140065101907
LEMUR-2-WILSON          
1 62694U 25009CP  26177.53112846  .00001842  00000+0  17278-3 0  9998
2 62694  97.7027 255.8318 0003545  30.7514 329.3914 14.95202566 78758
LEMUR-2-STAR-FOX        
1 62696U 25009CR  26177.48263976  .00005479  00000+0  41582-3 0  9990
2 62696  97.6954 259.0244 0004359  92.8194 267.3529 15.02613406 78952
LEMUR-2-ARIANNA         
1 62699U 25009CU  26177.48108961  .00007819  00000+0  59132-3 0  9995
2 62699  97.6897 258.7900 0004743  97.1255 263.0510 15.02608252 78955
LEMUR-2-ALISIA          
1 62706U 25009DB  26177.72358556  .00008224  00000+0  61705-3 0  9998
2 62706  97.6939 259.8273 0002772 182.1025 178.0189 15.02894611101596
