OBJECT_NAME,OBJECT_ID,EPOCH,MEAN_MOTION,ECCENTRICITY,INCLINATION,RA_OF_ASC_NODE,ARG_OF_PERICENTER,MEAN_ANOMALY,EPHEMERIS_TYPE,CLASSIFICATION_TYPE,NORAD_CAT_ID,ELEMENT_SET_NO,REV_AT_EPOCH,BSTAR,MEAN_MOTION_DOT,MEAN_MOTION_DDOT
LEMUR-1,2014-033AL,2026-06-26T15:47:55.257216,14.85278992,.0049244,97.7884,327.2531,48.3449,312.1966,0,U,40044,999,64687,.21294E-3,.1813E-4,0
LEMUR-2-GREENBERG,2017-042N,2026-06-26T18:10:27.144768,15.31609409,.0007633,97.3818,358.3396,337.7149,22.3759,0,U,42837,999,48985,.53034E-3,.1614E-3,0
LEMUR-2-ANDIS,2017-042P,2026-06-26T18:20:44.845152,15.35214753,.0007437,97.3678,358.5643,334.9832,25.1050,0,U,42838,999,48992,.5979E-3,.20407E-3,0
LEMUR-2-MONSON,2017-042Q,2026-06-26T11:01:39.001152,15.28263966,.0005479,97.4079,358.0012,329.4896,30.6024,0,U,42839,999,48958,.64775E-3,.17793E-3,0
LEMUR-2-FURIAUS,2017-042R,2026-06-26T18:11:07.602432,15.30553128,.0007504,97.3767,356.2737,38.3651,321.8122,0,U,42840,999,48967,.59636E-3,.17576E-3,0
LEMUR-2-PETERG,2017-042S,2026-06-26T18:06:30.477024,15.34274796,.0002712,97.3988,2.8023,311.1609,48.9400,0,U,42841,999,48990,.70311E-3,.23297E-3,0
LEMUR-2-DEMBITZ,2017-042T,2026-06-26T10:48:44.305056,15.30559376,.0005932,97.3823,358.9996,355.3862,4.7324,0,U,42842,999,48976,.56954E-3,.16778E-3,0
LEMUR-2-ZACHARY,2017-042W,2026-06-26T11:35:04.625088,15.51052466,.0002278,97.3591,9.3214,347.0942,13.0251,0,U,42845,999,49064,.72398E-3,.42179E-3,0
LEMUR-2-AMANDA-SVANTE,2021-034B,2026-06-26T16:22:20.581824,15.34845675,.0003271,97.5764,256.2206,182.4789,177.6438,0,U,48269,999,28251,.87666E-3,.29622E-3,0
LEMUR-2-SPECIAL-K,2021-034F,2026-06-26T17:39:27.815040,15.67337658,.0005036,97.5656,265.3027,223.9625,136.1235,0,U,48273,999,28318,.16004E-2,.175607E-2,0
LEMUR-2-EMBRIONOVIS,2023-084AQ,2026-06-26T09:03:34.102656,15.37769981,.0007455,97.6293,321.9310,282.0427,77.9981,0,U,56970,999,16909,.39006E-3,.14408E-3,0
LEMUR-2-DEVERILL-M-T,2023-100F,2026-06-26T14:11:40.886016,15.40198630,.000542,99.4471,219.0675,17.3913,342.7512,0,U,57391,999,16269,.62016E-3,.24855E-3,0
LEMUR-2-BASS,2023-174D,2026-06-26T17:48:22.436640,15.43401235,.000808,97.3853,262.5889,133.1598,227.0327,0,U,58259,999,14683,.3953E-3,.17606E-3,0
LEMUR-2-JK0903EM1407,2023-174CJ,2026-06-26T16:28:54.145056,15.52152002,.0005121,97.3932,268.4263,92.1601,268.0238,0,U,58336,999,14720,.42305E-3,.25548E-3,0
LEMUR-2-MJR092620,2023-174CN,2026-06-26T13:11:46.707360,15.45206009,.0006883,97.3982,267.7527,90.2557,269.9481,0,U,58340,999,14709,.42165E-3,.1997E-3,0
LEMUR-2-NIMBUS2000,2024-022A,2026-06-26T13:32:54.623904,15.40360089,.0010262,97.4104,27.6853,87.5376,272.7044,0,U,58899,999,13371,.51429E-3,.20745E-3,0
LEMUR-2-VALHALLA,2024-022B,2026-06-26T13:30:38.242368,15.39944276,.0010765,97.4102,27.6688,83.6377,276.6094,0,U,58900,999,13371,.3974E-3,.15785E-3,0
LEMUR-2-CAEL,2024-022E,2026-06-26T13:33:17.942400,15.41265834,.0008941,97.4085,28.6232,69.9227,290.2981,0,U,58903,999,13378,.40381E-3,.16749E-3,0
LEMUR-2-JOHNNYTRUONG,2024-043BA,2026-06-26T09:10:32.896416,15.61135676,.00048621,97.5373,329.6593,148.7213,211.4334,0,U,59146,999,12947,.51226314E-3,.43273E-3,0
LEMUR-2-TOMATOKECHUP,2024-149D,2026-06-26T11:42:17.938368,15.36216015,.00022463,97.3804,259.5586,157.4796,202.6547,0,U,60471,999,10359,.31985602E-3,.11213E-3,0
LEMUR-2-STELLA,2024-149BT,2026-06-26T16:16:56.460864,15.11999626,.0001451,97.6742,260.1754,97.9176,262.2219,0,U,60533,999,10193,.62136E-3,.1061E-3,0
LEMUR-2-MARHISYAM,2024-149BW,2026-06-26T17:28:56.508384,15.11435662,.0003239,97.6882,260.6844,100.7882,259.3713,0,U,60536,999,10192,.60353E-3,.10143E-3,0
LEMUR-2-AHMED-ASRAR,2024-149DN,2026-06-26T18:04:48.830016,15.12917521,.0000954,97.7009,262.8393,20.7325,339.3944,0,U,60576,999,10201,.63849E-3,.11187E-3,0
LEMUR-2-LLOYD,2024-149DP,2026-06-26T04:35:25.848096,15.09400718,.0005087,97.6746,258.3252,117.9672,242.2072,0,U,60577,999,10175,.7213097E-3,.11477E-3,0
LEMUR-2-SQUIRRELCOMM,2024-149DQ,2026-06-26T16:23:13.620192,15.07255310,.0005888,97.6718,258.5642,36.0972,324.0652,0,U,60578,999,10183,.41176E-3,.6148E-4,0
LEMUR-2-SIERRINI,2024-149DR,2026-06-26T18:05:38.004576,15.11140065,.000649,97.6847,260.3886,137.6221,222.5511,0,U,60579,999,10190,.65698E-3,.10962E-3,0
LEMUR-2-WILSON,2025-009CP,2026-06-26T12:44:49.498944,14.95202566,.00035455,97.7027,255.8318,30.7514,329.3914,0,U,62694,999,7875,.17277566E-3,.1842E-4,0
LEMUR-2-STAR-FOX,2025-009CR,2026-06-26T11:35:00.075264,15.02613406,.00043592,97.6954,259.0244,92.8194,267.3529,0,U,62696,999,7895,.41582235E-3,.5479E-4,0
LEMUR-2-ARIANNA,2025-009CU,2026-06-26T11:32:46.142304,15.02608252,.00047437,97.6897,258.7900,97.1255,263.0510,0,U,62699,999,7895,.59132278E-3,.7819E-4,0
LEMUR-2-ALISIA,2025-009DB,2026-06-26T17:21:57.792384,15.02894611,.0002772,97.6939,259.8273,182.1025,178.0189,0,U,62706,999,10159,.61705E-3,.8224E-4,0
